[{"OBJECT_NAME":"STARLINK-34736","OBJECT_ID":"2025-152E","EPOCH":"2026-03-09T14:05:49.149024","MEAN_MOTION":15.05658271,"ECCENTRICITY":0.0002331,"INCLINATION":97.6015,"RA_OF_ASC_NODE":285.4239,"ARG_OF_PERICENTER":67.6567,"MEAN_ANOMALY":292.4907,"EPHEMERIS_TYPE":0,"CLASSIFICATION_TYPE":"U","NORAD_CAT_ID":64846,"ELEMENT_SET_NO":999,"REV_AT_EPOCH":3540,"BSTAR":0.00032716,"MEAN_MOTION_DOT":4.664e-5,"MEAN_MOTION_DDOT":0},{"OBJECT_NAME":"KUIPER-00203","OBJECT_ID":"2026-030K","EPOCH":"2026-03-09T22:00:01.999584","MEAN_MOTION":15.12119903,"ECCENTRICITY":0.00114753,"INCLINATION":51.8873,"RA_OF_ASC_NODE":219.0557,"ARG_OF_PERICENTER":61.3884,"MEAN_ANOMALY":261.5536,"EPHEMERIS_TYPE":0,"CLASSIFICATION_TYPE":"U","NORAD_CAT_ID":67773,"ELEMENT_SET_NO":999,"REV_AT_EPOCH":368,"BSTAR":-0.068919543,"MEAN_MOTION_DOT":-0.01112832,"MEAN_MOTION_DDOT":0}]
